[{"OBJECT_NAME":"STARLINK-11673 [DTC]","OBJECT_ID":"2025-124B","EPOCH":"2026-02-22T13:14:39.234336","MEAN_MOTION":15.7096195,"ECCENTRICITY":0.0001469,"INCLINATION":42.9995,"RA_OF_ASC_NODE":120.4575,"ARG_OF_PERICENTER":299.4548,"MEAN_ANOMALY":60.6173,"EPHEMERIS_TYPE":0,"CLASSIFICATION_TYPE":"U","NORAD_CAT_ID":64318,"ELEMENT_SET_NO":999,"REV_AT_EPOCH":4045,"BSTAR":0.0026929,"MEAN_MOTION_DOT":0.00362438,"MEAN_MOTION_DDOT":0},{"OBJECT_NAME":"STARLINK-11671 [DTC]","OBJECT_ID":"2025-124C","EPOCH":"2026-02-19T14:47:37.621824","MEAN_MOTION":15.70863466,"ECCENTRICITY":0.0002747,"INCLINATION":43.0004,"RA_OF_ASC_NODE":138.0027,"ARG_OF_PERICENTER":281.5146,"MEAN_ANOMALY":78.5413,"EPHEMERIS_TYPE":0,"CLASSIFICATION_TYPE":"U","NORAD_CAT_ID":64319,"ELEMENT_SET_NO":999,"REV_AT_EPOCH":3999,"BSTAR":0.0015575,"MEAN_MOTION_DOT":0.00204605,"MEAN_MOTION_DDOT":0},{"OBJECT_NAME":"STARLINK-11594 [DTC]","OBJECT_ID":"2025-124D","EPOCH":"2026-02-22T04:43:31.184544","MEAN_MOTION":15.70974655,"ECCENTRICITY":0.0001076,"INCLINATION":42.9976,"RA_OF_ASC_NODE":122.9716,"ARG_OF_PERICENTER":248.4531,"MEAN_ANOMALY":111.6222,"EPHEMERIS_TYPE":0,"CLASSIFICATION_TYPE":"U","NORAD_CAT_ID":64320,"ELEMENT_SET_NO":999,"REV_AT_EPOCH":4039,"BSTAR":0.0018338,"MEAN_MOTION_DOT":0.00243249,"MEAN_MOTION_DDOT":0},{"OBJECT_NAME":"STARLINK-11596 [DTC]","OBJECT_ID":"2025-124E","EPOCH":"2026-02-22T13:37:35.917248","MEAN_MOTION":15.70921881,"ECCENTRICITY":0.0001591,"INCLINATION":42.9996,"RA_OF_ASC_NODE":120.5857,"ARG_OF_PERICENTER":300.4788,"MEAN_ANOMALY":59.5923,"EPHEMERIS_TYPE":0,"CLASSIFICATION_TYPE":"U","NORAD_CAT_ID":64321,"ELEMENT_SET_NO":999,"REV_AT_EPOCH":4045,"BSTAR":0.0023439,"MEAN_MOTION_DOT":0.00312979,"MEAN_MOTION_DDOT":0},{"OBJECT_NAME":"STARLINK-11747 [DTC]","OBJECT_ID":"2025-124F","EPOCH":"2026-02-22T13:22:17.904288","MEAN_MOTION":15.7092869,"ECCENTRICITY":0.0001976,"INCLINATION":43.0006,"RA_OF_ASC_NODE":120.4997,"ARG_OF_PERICENTER":291.017,"MEAN_ANOMALY":69.0486,"EPHEMERIS_TYPE":0,"CLASSIFICATION_TYPE":"U","NORAD_CAT_ID":64322,"ELEMENT_SET_NO":999,"REV_AT_EPOCH":4045,"BSTAR":0.0027556,"MEAN_MOTION_DOT":0.00370742,"MEAN_MOTION_DDOT":0},{"OBJECT_NAME":"STARLINK-11728 [DTC]","OBJECT_ID":"2025-124G","EPOCH":"2026-02-22T04:58:37.593120","MEAN_MOTION":15.70863555,"ECCENTRICITY":0.0001275,"INCLINATION":42.9985,"RA_OF_ASC_NODE":122.1574,"ARG_OF_PERICENTER":237.1486,"MEAN_ANOMALY":122.9259,"EPHEMERIS_TYPE":0,"CLASSIFICATION_TYPE":"U","NORAD_CAT_ID":64323,"ELEMENT_SET_NO":999,"REV_AT_EPOCH":4040,"BSTAR":0.0017673,"MEAN_MOTION_DOT":0.0023302,"MEAN_MOTION_DDOT":0},{"OBJECT_NAME":"STARLINK-11696 [DTC]","OBJECT_ID":"2025-124H","EPOCH":"2026-02-22T12:51:43.482816","MEAN_MOTION":15.70880022,"ECCENTRICITY":0.0001138,"INCLINATION":42.9998,"RA_OF_ASC_NODE":120.3267,"ARG_OF_PERICENTER":306.7202,"MEAN_ANOMALY":53.3561,"EPHEMERIS_TYPE":0,"CLASSIFICATION_TYPE":"U","NORAD_CAT_ID":64324,"ELEMENT_SET_NO":999,"REV_AT_EPOCH":4045,"BSTAR":0.0020561,"MEAN_MOTION_DOT":0.00272672,"MEAN_MOTION_DDOT":0},{"OBJECT_NAME":"STARLINK-11698 [DTC]","OBJECT_ID":"2025-124J","EPOCH":"2026-02-22T13:00:40.567680","MEAN_MOTION":15.70886079,"ECCENTRICITY":0.000148,"INCLINATION":42.9993,"RA_OF_ASC_NODE":120.3776,"ARG_OF_PERICENTER":293.9164,"MEAN_ANOMALY":66.1549,"EPHEMERIS_TYPE":0,"CLASSIFICATION_TYPE":"U","NORAD_CAT_ID":64325,"ELEMENT_SET_NO":999,"REV_AT_EPOCH":4045,"BSTAR":0.0014498,"MEAN_MOTION_DOT":0.00190273,"MEAN_MOTION_DDOT":0},{"OBJECT_NAME":"STARLINK-11678 [DTC]","OBJECT_ID":"2025-124K","EPOCH":"2026-02-22T13:29:57.346656","MEAN_MOTION":15.70927947,"ECCENTRICITY":0.0001665,"INCLINATION":42.9995,"RA_OF_ASC_NODE":120.5405,"ARG_OF_PERICENTER":302.4517,"MEAN_ANOMALY":57.6189,"EPHEMERIS_TYPE":0,"CLASSIFICATION_TYPE":"U","NORAD_CAT_ID":64326,"ELEMENT_SET_NO":999,"REV_AT_EPOCH":4045,"BSTAR":0.0022345,"MEAN_MOTION_DOT":0.00297887,"MEAN_MOTION_DDOT":0},{"OBJECT_NAME":"STARLINK-11674 [DTC]","OBJECT_ID":"2025-124L","EPOCH":"2026-02-22T14:15:38.296800","MEAN_MOTION":15.70889939,"ECCENTRICITY":7.51e-5,"INCLINATION":42.9987,"RA_OF_ASC_NODE":119.9012,"ARG_OF_PERICENTER":275.7714,"MEAN_ANOMALY":84.3068,"EPHEMERIS_TYPE":0,"CLASSIFICATION_TYPE":"U","NORAD_CAT_ID":64327,"ELEMENT_SET_NO":999,"REV_AT_EPOCH":4046,"BSTAR":0.0016021,"MEAN_MOTION_DOT":0.0021086,"MEAN_MOTION_DDOT":0},{"OBJECT_NAME":"STARLINK-11707 [DTC]","OBJECT_ID":"2025-124M","EPOCH":"2026-02-21T14:13:37.220160","MEAN_MOTION":15.71030943,"ECCENTRICITY":9.66e-5,"INCLINATION":43.0002,"RA_OF_ASC_NODE":126.1632,"ARG_OF_PERICENTER":337.0426,"MEAN_ANOMALY":23.0399,"EPHEMERIS_TYPE":0,"CLASSIFICATION_TYPE":"U","NORAD_CAT_ID":64328,"ELEMENT_SET_NO":999,"REV_AT_EPOCH":4030,"BSTAR":0.0017136,"MEAN_MOTION_DOT":0.00227373,"MEAN_MOTION_DDOT":0},{"OBJECT_NAME":"STARLINK-11734 [DTC]","OBJECT_ID":"2025-124N","EPOCH":"2026-02-22T15:31:54.322464","MEAN_MOTION":15.70892458,"ECCENTRICITY":8.04e-5,"INCLINATION":42.9985,"RA_OF_ASC_NODE":119.4294,"ARG_OF_PERICENTER":312.8106,"MEAN_ANOMALY":47.2694,"EPHEMERIS_TYPE":0,"CLASSIFICATION_TYPE":"U","NORAD_CAT_ID":64329,"ELEMENT_SET_NO":999,"REV_AT_EPOCH":4047,"BSTAR":0.0020418,"MEAN_MOTION_DOT":0.00270857,"MEAN_MOTION_DDOT":0},{"OBJECT_NAME":"STARLINK-34252","OBJECT_ID":"2025-124P","EPOCH":"2026-02-22T19:34:49.597248","MEAN_MOTION":15.27601264,"ECCENTRICITY":0.0002005,"INCLINATION":43.0031,"RA_OF_ASC_NODE":205.8898,"ARG_OF_PERICENTER":262.9462,"MEAN_ANOMALY":97.1161,"EPHEMERIS_TYPE":0,"CLASSIFICATION_TYPE":"U","NORAD_CAT_ID":64330,"ELEMENT_SET_NO":999,"REV_AT_EPOCH":3950,"BSTAR":0.0013329,"MEAN_MOTION_DOT":0.00036624,"MEAN_MOTION_DDOT":0},{"OBJECT_NAME":"STARLINK-34050","OBJECT_ID":"2025-124Q","EPOCH":"2026-02-22T03:38:27.468384","MEAN_MOTION":15.27589443,"ECCENTRICITY":0.0003532,"INCLINATION":43.0037,"RA_OF_ASC_NODE":209.5006,"ARG_OF_PERICENTER":268.3425,"MEAN_ANOMALY":91.7022,"EPHEMERIS_TYPE":0,"CLASSIFICATION_TYPE":"U","NORAD_CAT_ID":64331,"ELEMENT_SET_NO":999,"REV_AT_EPOCH":4046,"BSTAR":0.00078541,"MEAN_MOTION_DOT":0.00021422,"MEAN_MOTION_DDOT":0},{"OBJECT_NAME":"STARLINK-33782","OBJECT_ID":"2025-124R","EPOCH":"2026-02-22T17:29:11.942016","MEAN_MOTION":15.27609806,"ECCENTRICITY":0.0001114,"INCLINATION":43.0028,"RA_OF_ASC_NODE":206.085,"ARG_OF_PERICENTER":264.8683,"MEAN_ANOMALY":95.2041,"EPHEMERIS_TYPE":0,"CLASSIFICATION_TYPE":"U","NORAD_CAT_ID":64332,"ELEMENT_SET_NO":999,"REV_AT_EPOCH":3949,"BSTAR":0.001084,"MEAN_MOTION_DOT":0.00029715,"MEAN_MOTION_DDOT":0},{"OBJECT_NAME":"STARLINK-34207","OBJECT_ID":"2025-124S","EPOCH":"2026-02-22T19:29:16.527840","MEAN_MOTION":15.27588718,"ECCENTRICITY":0.0002802,"INCLINATION":43.0044,"RA_OF_ASC_NODE":205.8594,"ARG_OF_PERICENTER":276.8095,"MEAN_ANOMALY":83.2438,"EPHEMERIS_TYPE":0,"CLASSIFICATION_TYPE":"U","NORAD_CAT_ID":64333,"ELEMENT_SET_NO":999,"REV_AT_EPOCH":3950,"BSTAR":0.0012024,"MEAN_MOTION_DOT":0.00032983,"MEAN_MOTION_DDOT":0}]
