STARLINK-11673 [DTC]    
1 64318U 25124B   26053.55184299  .00362438  00000+0  26929-2 0  9990
2 64318  42.9995 120.4575 0001469 299.4548  60.6173 15.70961950 40456
STARLINK-11671 [DTC]    
1 64319U 25124C   26050.61640766  .00204605  00000+0  15575-2 0  9997
2 64319  43.0004 138.0027 0002747 281.5146  78.5413 15.70863466 39998
STARLINK-11594 [DTC]    
1 64320U 25124D   26053.19688871  .00243249  00000+0  18338-2 0  9991
2 64320  42.9976 122.9716 0001076 248.4531 111.6222 15.70974655 40393
STARLINK-11596 [DTC]    
1 64321U 25124E   26053.56777682  .00312979  00000+0  23439-2 0  9997
2 64321  42.9996 120.5857 0001591 300.4788  59.5923 15.70921881 40459
STARLINK-11747 [DTC]    
1 64322U 25124F   26053.55715167  .00370742  00000+0  27556-2 0  9993
2 64322  43.0006 120.4997 0001976 291.0170  69.0486 15.70928690 40450
STARLINK-11728 [DTC]    
1 64323U 25124G   26053.20737955  .00233020  00000+0  17673-2 0  9991
2 64323  42.9985 122.1574 0001275 237.1486 122.9259 15.70863555 40408
STARLINK-11696 [DTC]    
1 64324U 25124H   26053.53591994  .00272672  00000+0  20561-2 0  9995
2 64324  42.9998 120.3267 0001138 306.7202  53.3561 15.70880022 40455
STARLINK-11698 [DTC]    
1 64325U 25124J   26053.54213620  .00190273  00000+0  14498-2 0  9992
2 64325  42.9993 120.3776 0001480 293.9164  66.1549 15.70886079 40456
STARLINK-11678 [DTC]    
1 64326U 25124K   26053.56246929  .00297887  00000+0  22345-2 0  9992
2 64326  42.9995 120.5405 0001665 302.4517  57.6189 15.70927947 40458
STARLINK-11674 [DTC]    
1 64327U 25124L   26053.59419325  .00210860  00000+0  16021-2 0  9998
2 64327  42.9987 119.9012 0000751 275.7714  84.3068 15.70889939 40464
STARLINK-11707 [DTC]    
1 64328U 25124M   26052.59279190  .00227373  00000+0  17136-2 0  9997
2 64328  43.0002 126.1632 0000966 337.0426  23.0399 15.71030943 40307
STARLINK-11734 [DTC]    
1 64329U 25124N   26053.64715651  .00270857  00000+0  20418-2 0  9994
2 64329  42.9985 119.4294 0000804 312.8106  47.2694 15.70892458 40472
STARLINK-34252          
1 64330U 25124P   26053.81585182  .00036624  00000+0  13329-2 0  9994
2 64330  43.0031 205.8898 0002005 262.9462  97.1161 15.27601264 39503
STARLINK-34050          
1 64331U 25124Q   26053.15170681  .00021422  00000+0  78541-3 0  9994
2 64331  43.0037 209.5006 0003532 268.3425  91.7022 15.27589443 40464
STARLINK-33782          
1 64332U 25124R   26053.72861044  .00029715  00000+0  10840-2 0  9998
2 64332  43.0028 206.0850 0001114 264.8683  95.2041 15.27609806 39492
STARLINK-34207          
1 64333U 25124S   26053.81199685  .00032983  00000+0  12024-2 0  9991
2 64333  43.0044 205.8594 0002802 276.8095  83.2438 15.27588718 39505
